1 99012U 24152L   24229.82841826  .00000000  00000-0  86721-3 0    14
2 99012  97.4388 305.4166 0009936 139.3204 208.6568 15.18635312    06
